[{"OBJECT_NAME":"STARLINK-5023","OBJECT_ID":"2022-119AK","EPOCH":"2026-03-09T22:25:05.467584","MEAN_MOTION":15.08843792,"ECCENTRICITY":0.00014207,"INCLINATION":53.2185,"RA_OF_ASC_NODE":312.8925,"ARG_OF_PERICENTER":88.2756,"MEAN_ANOMALY":271.8398,"EPHEMERIS_TYPE":0,"CLASSIFICATION_TYPE":"U","NORAD_CAT_ID":53919,"ELEMENT_SET_NO":999,"REV_AT_EPOCH":19186,"BSTAR":1.135116e-5,"MEAN_MOTION_DOT":-1.07e-6,"MEAN_MOTION_DDOT":0},{"OBJECT_NAME":"IUS R\/B(1)","OBJECT_ID":"1985-092D","EPOCH":"2026-03-09T16:00:11.531232","MEAN_MOTION":2.29189376,"ECCENTRICITY":0.71752234,"INCLINATION":24.9968,"RA_OF_ASC_NODE":192.5453,"ARG_OF_PERICENTER":126.283,"MEAN_ANOMALY":322.7609,"EPHEMERIS_TYPE":0,"CLASSIFICATION_TYPE":"U","NORAD_CAT_ID":16118,"ELEMENT_SET_NO":999,"REV_AT_EPOCH":5853,"BSTAR":0.00053764889,"MEAN_MOTION_DOT":-2.3e-7,"MEAN_MOTION_DDOT":0}]
